BEIDOU 3 (C01)          
1 36287U 10001A   22154.54147863 -.00000271  00000+0  00000+0 0  9999
2 36287   1.8603  47.3818 0004178  22.5550 157.4251  1.00273612 45372
BEIDOU 5 (C06)          
1 36828U 10036A   22154.59022144 -.00000054  00000+0  00000+0 0  9996
2 36828  54.1908 176.3549 0027965 191.7454 201.6069  1.00250098 43445
BEIDOU 6 (C04)          
1 37210U 10057A   22154.56264910 -.00000102  00000+0  00000+0 0  9995
2 37210   0.8266  45.9057 0002607 132.3103  76.3551  1.00271927 42490
BEIDOU 7 (C07)          
1 37256U 10068A   22154.38726079 -.00000197  00000+0  00000+0 0  9990
2 37256  50.2372 289.8148 0021120 183.5886  24.0475  1.00253975 42009
BEIDOU 8 (C08)          
1 37384U 11013A   22154.22990009 -.00000192  00000+0  00000+0 0  9997
2 37384  60.2717  54.4005 0017724 187.4549 199.5209  1.00259746 40886
BEIDOU 9 (C09)          
1 37763U 11038A   22154.53249769 -.00000018  00000+0  00000+0 0  9996
2 37763  54.4749 178.8464 0097905 227.9655 131.9153  1.00282236 39868
BEIDOU 10 (C10)         
1 37948U 11073A   22154.23142093 -.00000142  00000+0  00000+0 0  9997
2 37948  50.3544 289.4527 0079708 216.7768 281.8396  1.00256376 38614
BEIDOU 11 (C05)         
1 38091U 12008A   22154.59686242  .00000066  00000+0  00000+0 0  9998
2 38091   1.5342  67.3641 0014707 336.3322 121.9391  1.00268493 37690
BEIDOU 12 (C11)         
1 38250U 12018A   22154.17479882 -.00000087  00000+0  00000+0 0  9994
2 38250  56.6989 354.0301 0020129 254.7064 102.7109  1.86234287 68815
BEIDOU 13 (C12)         
1 38251U 12018B   22154.29090003 -.00000086  00000+0  00000+0 0  9991
2 38251  56.6157 353.3503 0010929 256.9482 222.5400  1.86234338 68827
BEIDOU 15 (C14)         
1 38775U 12050B   22154.62093029  .00000022  00000+0  00000+0 0  9995
2 38775  55.3933 112.1498 0015543 321.6695 215.4093  1.86231312 66201
BEIDOU 16 (C02)         
1 38953U 12059A   22154.60183384 -.00000165  00000+0  00000+0 0  9993
2 38953   1.9559  84.3491 0012218 301.2176 167.0795  1.00268319 35263
BEIDOU 17 (C31)         
1 40549U 15019A   22154.23434454 -.00000154  00000+0  00000+0 0  9990
2 40549  51.9108 312.9186 0036184 192.8047 281.1162  1.00299864 26290
BEIDOU 18 (C57)         
1 40748U 15037A   22153.44285346 -.00000092  00000+0  00000+0 0  9998
2 40748  55.8649 352.2559 0005144  40.2247 140.1184  1.86233385 46633
BEIDOU 19 (C58)         
1 40749U 15037B   22154.32271688 -.00000087  00000+0  00000+0 0  9995
2 40749  55.8725 352.2147 0004518 358.1901 186.6461  1.86232129 46643
BEIDOU 20 (C18)         
1 40938U 15053A   22154.31659834 -.00000125  00000+0  00000+0 0  9998
2 40938  51.5231 276.0370 0044513 195.5281 347.1304  1.00295772 24568
BEIDOU IGSO-6 (C13)     
1 41434U 16021A   22154.22823343 -.00000167  00000+0  00000+0 0  9990
2 41434  58.0811  52.9837 0044153 219.1333 157.0569  1.00285744 22697
BEIDOU-2 G7 (C03)       
1 41586U 16037A   22154.54979843 -.00000345  00000+0  00000+0 0  9995
2 41586   1.9490  69.6877 0008311   1.6722 128.9926  1.00277944 22008
BEIDOU-3 M1 (C19)       
1 43001U 17069A   22154.39833763  .00000020  00000+0  00000+0 0  9997
2 43001  55.5464 112.1569 0012336 293.8077 250.2836  1.86231624 31132
BEIDOU-3 M2 (C20)       
1 43002U 17069B   22154.33567510  .00000019  00000+0  00000+0 0  9994
2 43002  55.5458 112.1936 0010451 311.6196 233.5113  1.86231257 31124
BEIDOU-3 M3 (C27)       
1 43107U 18003A   22153.78963595 -.00000092  00000+0  00000+0 0  9992
2 43107  55.3204 353.1672 0005954  57.0836 288.0588  1.86232427 29875
BEIDOU-3 M4 (C28)       
1 43108U 18003B   22153.82740212 -.00000091  00000+0  00000+0 0  9996
2 43108  55.3127 353.1548 0001639 260.5636 153.8748  1.86230855 29888
BEIDOU-3 M5 (C21)       
1 43207U 18018A   22153.65443513  .00000012  00000+0  00000+0 0  9999
2 43207  55.5071 112.2953 0007697 328.4462  31.4641  1.86231537 29266
BEIDOU-3 M6 (C22)       
1 43208U 18018B   22154.25801610  .00000018  00000+0  00000+0 0  9999
2 43208  55.5041 112.2798 0010293 302.8055  57.0553  1.86231529 29279
BEIDOU-3 M7 (C29)       
1 43245U 18029A   22154.48313355 -.00000087  00000+0  00000+0 0  9998
2 43245  55.2349 350.9137 0001401  58.1144 302.3949  1.86232535 28437
BEIDOU-3 M8 (C30)       
1 43246U 18029B   22154.17479396 -.00000088  00000+0  10000-3 0  9999
2 43246  55.2307 350.9541 0004766  12.9766 187.3230  1.86232736 28411
BEIDOU IGSO-7 (C16)     
1 43539U 18057A   22154.59049688 -.00000064  00000+0  00000+0 0  9997
2 43539  55.0738 175.8271 0049191 227.3449 172.2972  1.00262395 14373
BEIDOU-3 M9 (C23)       
1 43581U 18062A   22154.59859095  .00000014  00000+0  00000+0 0  9995
2 43581  54.2776 232.5582 0003860 267.4952  67.9260  1.86231834 26164
BEIDOU-3 M10 (C24)      
1 43582U 18062B   22154.55953608  .00000015  00000+0  00000+0 0  9998
2 43582  54.2788 232.5502 0004170   0.4079  40.5903  1.86232072 26177
BEIDOU-3 M11 (C25)      
1 43602U 18067A   22153.77032036  .00000019  00000+0  00000+0 0  9996
2 43602  54.3620 231.1903 0006673   7.4002 265.9114  1.86231681 25642
BEIDOU-3 M12 (C26)      
1 43603U 18067B   22153.50901932  .00000020  00000+0  00000+0 0  9990
2 43603  54.3587 231.1662 0003813 353.9031  14.5961  1.86231643 25669
BEIDOU-3 M13 (C32)      
1 43622U 18072A   22154.23659650  .00000017  00000+0  00000+0 0  9991
2 43622  55.4719 111.8317 0008776 291.4301 234.1869  1.86231619 25186
BEIDOU-3 M14 (C33)      
1 43623U 18072B   22154.57334741  .00000021  00000+0  00000+0 0  9995
2 43623  55.4740 111.8120 0006827 310.1460 171.4852  1.86231659 25193
BEIDOU-3 M15 (C34)      
1 43647U 18078A   22154.17139089 -.00000089  00000+0  10000-3 0  9991
2 43647  55.1285 351.0839 0006897  14.1158  93.5637  1.86233335 24699
BEIDOU-3 M16 (C35)      
1 43648U 18078B   22153.36003178 -.00000093  00000+0  00000+0 0  9991
2 43648  55.1264 351.1175 0005319  28.6265 162.8874  1.86232207 24698
BEIDOU-3 G1 (C59)       
1 43683U 18085A   22154.42063406 -.00000269  00000+0  00000+0 0  9991
2 43683   0.8766 168.2390 0003398 336.2402  38.7872  1.00267793 13278
BEIDOU-3 M17 (C36)      
1 43706U 18093A   22154.29977971  .00000016  00000+0  00000+0 0  9991
2 43706  54.3608 232.4541 0009965 270.8435  89.1189  1.86232069 24073
BEIDOU-3 M18 (C37)      
1 43707U 18093B   22153.72346355  .00000018  00000+0  00000+0 0  9997
2 43707  54.3627 232.4636 0007613 298.7366 126.0299  1.86232148 24059
BEIDOU-3 IGSO-1 (C38)   
1 44204U 19023A   22154.60898140 -.00000225  00000+0  00000+0 0  9997
2 44204  56.5392  53.1198 0018993 201.2436 335.0969  1.00262120 11574
BEIDOU-2 G8             
1 44231U 19027A   22154.54226360 -.00000239  00000+0  00000+0 0  9998
2 44231   0.8301  75.7891 0004613 117.9711  37.8973  1.00268286 11288
BEIDOU-3 IGSO-2 (C39)   
1 44337U 19035A   22154.59020389 -.00000071  00000+0  00000+0 0  9996
2 44337  55.1157 171.8474 0023314 198.6757 211.5303  1.00256909 10913
BEIDOU-3 M23 (C45)      
1 44542U 19061A   22154.23560583  .00000016  00000+0  00000+0 0  9997
2 44542  54.5870 232.5953 0007591 330.4166  29.6170  1.86231319 18327
BEIDOU-3 M24 (C46)      
1 44543U 19061B   22153.39146267  .00000020  00000+0  00000+0 0  9998
2 44543  54.5856 232.5929 0004931 319.4024 105.9572  1.86231612 18308
BEIDOU-3 IGSO-3         
1 44709U 19073A   22154.17844528 -.00000188  00000+0  00000+0 0  9993
2 44709  57.2884 296.5295 0022478 173.4837 324.0879  1.00260709  9663
BEIDOU-3 M21            
1 44793U 19078A   22154.35535747 -.00000088  00000+0  10000-3 0  9995
2 44793  54.9767 351.1007 0007134  19.5415 165.3844  1.86232179 17181
BEIDOU-3 M22            
1 44794U 19078B   22152.86937281 -.00000096  00000+0  00000+0 0  9993
2 44794  54.9530 351.1433 0005040  20.3739 159.9051  1.86232627 17150
BEIDOU-3 M19            
1 44864U 19090A   22154.45366356  .00000020  00000+0  00000+0 0  9997
2 44864  55.4066 112.0360 0018744 273.8601  83.0829  1.86231809 16766
BEIDOU-3 M20            
1 44865U 19090B   22154.31982542  .00000019  00000+0  00000+0 0  9992
2 44865  55.4100 112.0715 0017194 286.2846  70.7983  1.86231768 16732
BEIDOU-3 G2             
1 45344U 20017A   22154.52944505 -.00000133  00000+0  00000+0 0  9994
2 45344   2.0762 351.3628 0004377 107.2163  64.0396  1.00273009  8477
BEIDOU-3 G3             
1 45807U 20040A   22154.46378086 -.00000344  00000+0  00000+0 0  9996
2 45807   1.4735 302.9053 0005898 330.5382 255.9105  1.00267291  7284
